1 42018U 17008BY  21086.78967400  .00004883  00000-0  18418-3 0  9997
2 42018  97.3296 155.8319 0008245  22.5917 337.5684 15.27478963227582
1 42018U 17008BY  21087.44476784  .00004798  00000-0  18102-3 0  9996
2 42018  97.3294 156.4757 0008158  20.3558 339.8005 15.27484899227681
1 42018U 17008BY  21087.77231443  .00004291  00000-0  16216-3 0  9995
2 42018  97.3292 156.7977 0008117  19.2536 340.9008 15.27486495227730
1 42018U 17008BY  21088.23087890  .00003456  00000-0  13115-3 0  9999
2 42018  97.3290 157.2483 0008064  17.7046 342.4473 15.27488111227804
1 42018U 17008BY  21088.75495213  .00003074  00000-0  11695-3 0  9995
2 42018  97.3289 157.7634 0008023  15.7829 344.3659 15.27490101227884
1 42018U 17008BY  21089.41004229  .00002327  00000-0  89180-4 0  9997
2 42018  97.3288 158.4073 0007944  13.5356 346.6095 15.27491682227985
1 42018U 17008BY  21089.73758689  .00002564  00000-0  97991-4 0  9990
2 42018  97.3287 158.7292 0007912  12.4072 347.7360 15.27493853228034
1 42018U 17008BY  21090.19614876  .00002334  00000-0  89433-4 0  9998
2 42018  97.3286 159.1799 0007871  10.8383 349.3025 15.27495381228103
1 42018U 17008BY  21090.26165750  .00002368  00000-0  90707-4 0  9991
2 42018  97.3285 159.2443 0007863  10.6223 349.5181 15.27495811228115
1 42018U 17008BY  21091.24428265  .00005013  00000-0  18885-3 0  9999
2 42018  97.3281 160.2099 0007728   7.1213 353.0134 15.27510011228264
1 42018U 17008BY  21091.76834808  .00004379  00000-0  16532-3 0  9991
2 42018  97.3279 160.7250 0007650   5.3632 354.7688 15.27512936228343
1 42018U 17008BY  21092.42342685  .00004813  00000-0  18138-3 0  9999
2 42018  97.3280 161.3689 0007586   2.8913 357.2369 15.27520120228449
1 42018U 17008BY  21092.75096534  .00004730  00000-0  17830-3 0  9990
2 42018  97.3279 161.6908 0007551   1.8289 358.2976 15.27523009228490
1 42018U 17008BY  21093.47154705  .00005076  00000-0  19110-3 0  9992
2 42018  97.3279 162.3990 0007467 359.2069   0.9157 15.27530771228600
1 42018U 17008BY  21093.66806884  .00005009  00000-0  18859-3 0  9990
2 42018  97.3279 162.5922 0007448 358.4808   1.6407 15.27532565228630
1 42018U 17008BY  21093.86459061  .00004574  00000-0  17247-3 0  9999
2 42018  97.3278 162.7853 0007426 357.7336   2.3868 15.27533144228664
1 42018U 17008BY  21094.19212640  .00004284  00000-0  16171-3 0  9999
2 42018  97.3277 163.1072 0007389 356.4937   3.6250 15.27535378228718
1 42018U 17008BY  21094.78169033  .00003408  00000-0  12918-3 0  9993
2 42018  97.3278 163.6867 0007340 354.2602   5.8552 15.27537745228807
1 42018U 17008BY  21094.97821142  .00003061  00000-0  11629-3 0  9993
2 42018  97.3278 163.8798 0007312 353.5111   6.6032 15.27538168228833
1 42018U 17008BY  21095.82980216  .00002190  00000-0  83997-4 0  9996
2 42018  97.3278 164.7167 0007227 350.3818   9.7281 15.27540071228967
1 42018U 17008BY  21096.15733620  .00002337  00000-0  89429-4 0  9997
2 42018  97.3279 165.0386 0007205 349.0113  11.0968 15.27542137229014
1 42018U 17008BY  21096.81240532  .00002353  00000-0  90004-4 0  9994
2 42018  97.3278 165.6822 0007168 346.4781  13.6265 15.27543619229119
1 42018U 17008BY  21097.13993845  .00002325  00000-0  88990-4 0  9992
2 42018  97.3278 166.0041 0007143 345.2019  14.9011 15.27545334229165
1 42018U 17008BY  21097.86050754  .00003115  00000-0  11828-3 0  9998
2 42018  97.3277 166.7125 0007008 342.4602  17.6394 15.27552908229272
1 42018U 17008BY  21098.31905095  .00003920  00000-0  14810-3 0  9994
2 42018  97.3276 167.1631 0006960 340.6900  19.4074 15.27558302229342
1 42018U 17008BY  21098.77759527  .00003196  00000-0  12127-3 0  9995
2 42018  97.3275 167.6136 0006922 338.8927  21.2026 15.27558267229418
1 42018U 17008BY  21099.43265644  .00002916  00000-0  11086-3 0  9993
2 42018  97.3275 168.2573 0006822 336.1942  23.8981 15.27560997229519
1 42018U 17008BY  21099.76018660  .00002616  00000-0  99721-4 0  9993
2 42018  97.3274 168.5792 0006816 334.8546  25.2361 15.27561919229560
1 42018U 17008BY  21100.21872802  .00002404  00000-0  91878-4 0  9992
2 42018  97.3274 169.0297 0006765 332.9493  27.1393 15.27563786229637
1 42018U 17008BY  21100.74277348  .00002654  00000-0  10113-3 0  9993
2 42018  97.3273 169.5448 0006737 330.7936  29.2926 15.27567840229715
1 42018U 17008BY  21101.13580746  .00002637  00000-0  10049-3 0  9995
2 42018  97.3273 169.9310 0006703 329.1586  30.9259 15.27569862229773
1 42018U 17008BY  21101.46333543  .00002821  00000-0  10732-3 0  9996
2 42018  97.3273 170.2528 0006675 327.8910  32.1922 15.27572072229827
1 42018U 17008BY  21101.92187463  .00002331  00000-0  89138-4 0  9998
2 42018  97.3271 170.7034 0006611 325.9158  34.1656 15.27572514229899
1 42018U 17008BY  21102.11839115  .00002315  00000-0  88540-4 0  9996
2 42018  97.3270 170.8965 0006597 325.1199  34.9607 15.27573389229921
1 42018U 17008BY  21103.16647737  .00002528  00000-0  96421-4 0  9992
2 42018  97.3267 171.9264 0006514 320.6196  39.4569 15.27578806230082
1 42018U 17008BY  21104.41107492  .00002613  00000-0  99569-4 0  9991
2 42018  97.3266 173.1495 0006447 315.1839  44.8879 15.27584981230275
1 42018U 17008BY  21105.45915075  .00003783  00000-0  14288-3 0  9993
2 42018  97.3262 174.1793 0006368 310.8021  49.2665 15.27595074230435
1 42018U 17008BY  21105.78667507  .00002633  00000-0  10029-3 0  9995
2 42018  97.3260 174.5011 0006335 309.2866  50.7811 15.27592911230485
1 42018U 17008BY  21106.44172074  .00002676  00000-0  10186-3 0  9990
2 42018  97.3260 175.1448 0006296 306.5085  53.5574 15.27596670230589
1 42018U 17008BY  21106.76924297  .00002553  00000-0  97297-4 0  9990
2 42018  97.3259 175.4667 0006281 304.9274  55.1375 15.27598255230633
1 42018U 17008BY  21106.83474742  .00002457  00000-0  93731-4 0  9995
2 42018  97.3258 175.5309 0006282 304.6071  55.4575 15.27598292230646
1 42018U 17008BY  21107.42428606  .00002407  00000-0  91876-4 0  9992
2 42018  97.3257 176.1103 0006234 301.9862  58.0771 15.27601680230732
1 42018U 17008BY  21107.75180652  .00002573  00000-0  98011-4 0  9996
2 42018  97.3256 176.4321 0006216 300.5322  59.5303 15.27604374230787
1 42018U 17008BY  21108.14483053  .00002503  00000-0  95410-4 0  9994
2 42018  97.3256 176.8184 0006217 298.7542  61.3072 15.27606698230843
1 42018U 17008BY  21108.47234981  .00002961  00000-0  11237-3 0  9996
2 42018  97.3257 177.1402 0006198 297.3064  62.7544 15.27610319230892
1 42018U 17008BY  21108.86537269  .00003085  00000-0  11697-3 0  9992
2 42018  97.3256 177.5264 0006181 295.6049  64.4551 15.27613225230950
1 42018U 17008BY  21109.45490580  .00003214  00000-0  12173-3 0  9996
2 42018  97.3255 178.1057 0006149 292.7545  67.3045 15.27617829231044
1 42018U 17008BY  21109.91342959  .00003396  00000-0  12843-3 0  9998
2 42018  97.3254 178.5563 0006146 290.6934  69.3646 15.27622156231111
1 42018U 17008BY  21110.50295917  .00003312  00000-0  12533-3 0  9990
2 42018  97.3256 179.1356 0006138 287.9511  72.1059 15.27626552231205
1 42018U 17008BY  21110.76497184  .00003182  00000-0  12048-3 0  9994
2 42018  97.3256 179.3931 0006123 286.8484  73.2083 15.27628258231245
1 42018U 17008BY  21110.89597806  .00003130  00000-0  11855-3 0  9998
2 42018  97.3256 179.5218 0006124 286.2054  73.8512 15.27628995231266
1 42018U 17008BY  21111.48550511  .00003061  00000-0  11601-3 0  9998
2 42018  97.3257 180.1011 0006105 283.5726  76.4833 15.27633099231357
1 42018U 17008BY  21111.81301971  .00002941  00000-0  11154-3 0  9998
2 42018  97.3257 180.4230 0006102 282.1571  77.8985 15.27634878231408
1 42018U 17008BY  21112.14053385  .00002820  00000-0  10707-3 0  9997
2 42018  97.3257 180.7448 0006095 280.6196  79.4357 15.27636647231451
1 42018U 17008BY  21112.46804772  .00002499  00000-0  95199-4 0  9997
2 42018  97.3258 181.0665 0006117 279.1820  80.8727 15.27637381231508
1 42018U 17008BY  21112.73005852  .00002438  00000-0  92930-4 0  9992
2 42018  97.3257 181.3240 0006112 277.9592  82.0954 15.27638759231546
1 42018U 17008BY  21113.18857695  .00002313  00000-0  88290-4 0  9998
2 42018  97.3257 181.7745 0006113 275.8830  84.1713 15.27640895231611
1 42018U 17008BY  21113.77809955  .00002399  00000-0  91469-4 0  9995
2 42018  97.3257 182.3537 0006111 273.2591  86.7949 15.27644383231706
1 42018U 17008BY  21114.49862590  .00002372  00000-0  90446-4 0  9994
2 42018  97.3256 183.0617 0006123 269.9731  90.0807 15.27647943231811
1 42018U 17008BY  21114.95714143  .00002621  00000-0  99644-4 0  9991
2 42018  97.3255 183.5123 0006138 267.9002  92.1534 15.27651164231889
1 42018U 17008BY  21115.48115804  .00002895  00000-0  10977-3 0  9993
2 42018  97.3255 184.0272 0006152 265.4789  94.5748 15.27655034231963
1 42018U 17008BY  21115.87416971  .00003144  00000-0  11897-3 0  9995
2 42018  97.3254 184.4133 0006158 263.6977  96.3561 15.27658105232020
1 42018U 17008BY  21116.13617729  .00003085  00000-0  11678-3 0  9990
2 42018  97.3253 184.6708 0006169 262.5364  97.5175 15.27659469232061
1 42018U 17008BY  21116.46368633  .00003084  00000-0  11674-3 0  9998
2 42018  97.3253 184.9926 0006170 260.9697  99.0845 15.27661364232113
1 42018U 17008BY  21116.92219798  .00003208  00000-0  12132-3 0  9994
2 42018  97.3251 185.4431 0006184 258.8099 101.2445 15.27664623232185
1 42018U 17008BY  21117.44621059  .00002953  00000-0  11188-3 0  9995
2 42018  97.3250 185.9580 0006195 256.4355 103.6195 15.27667129232266
1 42018U 17008BY  21117.51171204  .00002979  00000-0  11283-3 0  9999
2 42018  97.3250 186.0224 0006195 256.1354 103.9196 15.27667674232279
1 42018U 17008BY  21118.16672565  .00002944  00000-0  11152-3 0  9994
2 42018  97.3248 186.6659 0006225 253.1510 106.9047 15.27671962232373
1 42018U 17008BY  21118.49423214  .00002684  00000-0  10193-3 0  9990
2 42018  97.3247 186.9877 0006237 251.7011 108.3550 15.27673141232422
1 42018U 17008BY  21118.82173805  .00002609  00000-0  99125-4 0  9995
2 42018  97.3246 187.3095 0006254 250.3227 109.7338 15.27674990232478
1 42018U 17008BY  21119.47674914  .00002380  00000-0  90659-4 0  9993
2 42018  97.3245 187.9532 0006291 247.4061 112.6513 15.27677980232574
